{
    "links": {
        "self": "http://www.neowsapp.com/rest/v1/neo/54051422?api_key=iIulBulltgU6a56xZRHN4H3l9WmuAYTsLGpBGhQ2"
    },
    "id": "54051422",
    "neo_reference_id": "54051422",
    "name": "(2020 PD7)",
    "designation": "2020 PD7",
    "nasa_jpl_url": "http://ssd.jpl.nasa.gov/sbdb.cgi?sstr=54051422",
    "absolute_magnitude_h": 22.809,
    "estimated_diameter": {
        "kilometers": {
            "estimated_diameter_min": 0.0729046076,
            "estimated_diameter_max": 0.1630196584
        },
        "meters": {
            "estimated_diameter_min": 72.9046075729,
            "estimated_diameter_max": 163.0196584059
        },
        "miles": {
            "estimated_diameter_min": 0.0453008089,
            "estimated_diameter_max": 0.1012956882
        },
        "feet": {
            "estimated_diameter_min": 239.1883527095,
            "estimated_diameter_max": 534.8414160845
        }
    },
    "is_potentially_hazardous_asteroid": false,
    "close_approach_data": [
        {
            "close_approach_date": "2020-08-09",
            "close_approach_date_full": "2020-Aug-09 18:46",
            "epoch_date_close_approach": 1596998760000,
            "relative_velocity": {
                "kilometers_per_second": "44.2761293775",
                "kilometers_per_hour": "159394.0657590947",
                "miles_per_hour": "99041.2738045886"
            },
            "miss_distance": {
                "astronomical": "0.0221940019",
                "lunar": "8.6334667391",
                "kilometers": "3320175.411015953",
                "miles": "2063061.3349800314"
            },
            "orbiting_body": "Earth"
        }
    ],
    "orbital_data": {
        "orbit_id": "1",
        "orbit_determination_date": "2020-08-28 04:13:10",
        "first_observation_date": "2020-08-01",
        "last_observation_date": "2020-08-02",
        "data_arc_in_days": 1,
        "observations_used": 13,
        "orbit_uncertainty": "9",
        "minimum_orbit_intersection": ".0217698",
        "jupiter_tisserand_invariant": "2.464",
        "epoch_osculation": "2459063.5",
        "eccentricity": ".8771250796795653",
        "semi_major_axis": "2.234439944879453",
        "inclination": "77.56075266645492",
        "ascending_node_longitude": "137.7422220183765",
        "orbital_period": "1219.976476662204",
        "perihelion_distance": ".2745566301878593",
        "perihelion_argument": "302.544860710992",
        "aphelion_distance": "4.194323259571047",
        "perihelion_time": "2459111.656523635375",
        "mean_anomaly": "345.7896042748575",
        "mean_motion": ".2950876569234698",
        "equinox": "J2000",
        "orbit_class": {
            "orbit_class_type": "APO",
            "orbit_class_description": "Near-Earth asteroid orbits which cross the Earth’s orbit similar to that of 1862 Apollo",
            "orbit_class_range": "a (semi-major axis) > 1.0 AU; q (perihelion) < 1.017 AU"
        }
    },
    "is_sentry_object": false
}